{"type": "FeatureCollection", "features": [ {"type": "Feature", "properties": {"norad_id": 66959, "name": "STARLINK-35887", "group": "last-30-days", "lat": 24.233095163230796, "lon": -125.07382217055567, "alt_km": 383.5162926864423, "timestamp": "2025-12-26T10:30:48.976782+00:00", "meta": {"OBJECT_NAME": "STARLINK-35887", "OBJECT_ID": "2025-288A", "EPOCH": "2025-12-26T04:00:01.998720", "MEAN_MOTION": 15.61559676, "ECCENTRICITY": 0.0001563, "INCLINATION": 43.0002, "RA_OF_ASC_NODE": 85.4224, "ARG_OF_PERICENTER": 280.9725, "MEAN_ANOMALY": 135.11, "EPHEMERIS_TYPE": 0, "CLASSIFICATION_TYPE": "U", "NORAD_CAT_ID": 66959, "ELEMENT_SET_NO": 999, "REV_AT_EPOCH": 398, "BSTAR": -0.025038, "MEAN_MOTION_DOT": -0.01947429, "MEAN_MOTION_DDOT": 0}, "tle": {"line1": "1 66959U 25288A   25360.16668980 -.01947429  00000+0 -25038-1 0  9996", "line2": "2 66959  43.0002  85.4224 0001563 280.9725 135.1100 15.61559676  3981"}}, "geometry": {"type": "Point", "coordinates": [-125.07382217055567, 24.233095163230796]}}, {"type": "Feature", "properties": {"norad_id": 66960, "name": "STARLINK-35879", "group": "last-30-days", "lat": 23.080426463818636, "lon": -123.40881889350304, "alt_km": 383.595281030005, "timestamp": "2025-12-26T10:30:48.976794+00:00", "meta": {"OBJECT_NAME": "STARLINK-35879", "OBJECT_ID": "2025-288B", "EPOCH": "2025-12-26T04:00:01.998720", "MEAN_MOTION": 15.61554311, "ECCENTRICITY": 0.0001502, "INCLINATION": 43.0001, "RA_OF_ASC_NODE": 85.4168, "ARG_OF_PERICENTER": 277.3328, "MEAN_ANOMALY": 140.6683, "EPHEMERIS_TYPE": 0, "CLASSIFICATION_TYPE": "U", "NORAD_CAT_ID": 66960, "ELEMENT_SET_NO": 999, "REV_AT_EPOCH": 398, "BSTAR": -0.024972, "MEAN_MOTION_DOT": -0.01942513, "MEAN_MOTION_DDOT": 0}, "tle": {"line1": "1 66960U 25288B   25360.16668980 -.01942513  00000+0 -24972-1 0  9993", "line2": "2 66960  43.0001  85.4168 0001502 277.3328 140.6683 15.61554311  3989"}}, "geometry": {"type": "Point", "coordinates": [-123.40881889350304, 23.080426463818636]}}, {"type": "Feature", "properties": {"norad_id": 66961, "name": "STARLINK-35761", "group": "last-30-days", "lat": 21.9068719613896, "lon": -121.7660273118891, "alt_km": 383.75532434118486, "timestamp": "2025-12-26T10:30:48.976807+00:00", "meta": {"OBJECT_NAME": "STARLINK-35761", "OBJECT_ID": "2025-288C", "EPOCH": "2025-12-26T04:00:01.998720", "MEAN_MOTION": 15.61559195, "ECCENTRICITY": 0.0001524, "INCLINATION": 42.9999, "RA_OF_ASC_NODE": 85.4127, "ARG_OF_PERICENTER": 276.6799, "MEAN_ANOMALY": 143.2395, "EPHEMERIS_TYPE": 0, "CLASSIFICATION_TYPE": "U", "NORAD_CAT_ID": 66961, "ELEMENT_SET_NO": 999, "REV_AT_EPOCH": 398, "BSTAR": -0.025075, "MEAN_MOTION_DOT": -0.01949894, "MEAN_MOTION_DDOT": 0}, "tle": {"line1": "1 66961U 25288C   25360.16668980 -.01949894  00000+0 -25075-1 0  9998", "line2": "2 66961  42.9999  85.4127 0001524 276.6799 143.2395 15.61559195  3981"}}, "geometry": {"type": "Point", "coordinates": [-121.7660273118891, 21.9068719613896]}}, {"type": "Feature", "properties": {"norad_id": 66962, "name": "STARLINK-35874", "group": "last-30-days", "lat": 20.720460387982513, "lon": -120.15520831873314, "alt_km": 383.9765775075348, "timestamp": "2025-12-26T10:30:48.976817+00:00", "meta": {"OBJECT_NAME": "STARLINK-35874", "OBJECT_ID": "2025-288D", "EPOCH": "2025-12-26T04:00:01.998720", "MEAN_MOTION": 15.61561996, "ECCENTRICITY": 0.0001598, "INCLINATION": 43, "RA_OF_ASC_NODE": 85.4078, "ARG_OF_PERICENTER": 278.547, "MEAN_ANOMALY": 143.2858, "EPHEMERIS_TYPE": 0, "CLASSIFICATION_TYPE": "U", "NORAD_CAT_ID": 66962, "ELEMENT_SET_NO": 999, "REV_AT_EPOCH": 398, "BSTAR": -0.025099, "MEAN_MOTION_DOT": -0.01951827, "MEAN_MOTION_DDOT": 0}, "tle": {"line1": "1 66962U 25288D   25360.16668980 -.01951827  00000+0 -25099-1 0  9994", "line2": "2 66962  43.0000  85.4078 0001598 278.5470 143.2858 15.61561996  3986"}}, "geometry": {"type": "Point", "coordinates": [-120.15520831873314, 20.720460387982513]}}, {"type": "Feature", "properties": {"norad_id": 66963, "name": "STARLINK-36133", "group": "last-30-days", "lat": 19.519723561729645, "lon": -118.57021734843788, "alt_km": 384.14421383690933, "timestamp": "2025-12-26T10:30:48.976829+00:00", "meta": {"OBJECT_NAME": "STARLINK-36133", "OBJECT_ID": "2025-288E", "EPOCH": "2025-12-26T04:00:01.998720", "MEAN_MOTION": 15.61555363, "ECCENTRICITY": 0.0001662, "INCLINATION": 43, "RA_OF_ASC_NODE": 85.4031, "ARG_OF_PERICENTER": 277.4676, "MEAN_ANOMALY": 146.2836, "EPHEMERIS_TYPE": 0, "CLASSIFICATION_TYPE": "U", "NORAD_CAT_ID": 66963, "ELEMENT_SET_NO": 999, "REV_AT_EPOCH": 398, "BSTAR": -0.024952, "MEAN_MOTION_DOT": -0.01941346, "MEAN_MOTION_DDOT": 0}, "tle": {"line1": "1 66963U 25288E   25360.16668980 -.01941346  00000+0 -24952-1 0  9997", "line2": "2 66963  43.0000  85.4031 0001662 277.4676 146.2836 15.61555363  3984"}}, "geometry": {"type": "Point", "coordinates": [-118.57021734843788, 19.519723561729645]}}, {"type": "Feature", "properties": {"norad_id": 66964, "name": "STARLINK-36104", "group": "last-30-days", "lat": 18.304069836525795, "lon": -117.00756591862769, "alt_km": 384.33548939826323, "timestamp": "2025-12-26T10:30:48.976842+00:00", "meta": {"OBJECT_NAME": "STARLINK-36104", "OBJECT_ID": "2025-288F", "EPOCH": "2025-12-26T04:00:01.998720", "MEAN_MOTION": 15.61557497, "ECCENTRICITY": 0.0001647, "INCLINATION": 43.0001, "RA_OF_ASC_NODE": 85.398, "ARG_OF_PERICENTER": 279.4712, "MEAN_ANOMALY": 146.1951, "EPHEMERIS_TYPE": 0, "CLASSIFICATION_TYPE": "U", "NORAD_CAT_ID": 66964, "ELEMENT_SET_NO": 999, "REV_AT_EPOCH": 398, "BSTAR": -0.025004, "MEAN_MOTION_DOT": -0.01945012, "MEAN_MOTION_DDOT": 0}, "tle": {"line1": "1 66964U 25288F   25360.16668980 -.01945012  00000+0 -25004-1 0  9991", "line2": "2 66964  43.0001  85.3980 0001647 279.4712 146.1951 15.61557497  3981"}}, "geometry": {"type": "Point", "coordinates": [-117.00756591862769, 18.304069836525795]}}, {"type": "Feature", "properties": {"norad_id": 66965, "name": "STARLINK-36067", "group": "last-30-days", "lat": 17.069785473204853, "lon": -115.4596756473541, "alt_km": 384.3227319753032, "timestamp": "2025-12-26T10:30:48.976852+00:00", "meta": {"OBJECT_NAME": "STARLINK-36067", "OBJECT_ID": "2025-288G", "EPOCH": "2025-12-26T04:00:01.998720", "MEAN_MOTION": 15.61572122, "ECCENTRICITY": 0.0001256, "INCLINATION": 42.9997, "RA_OF_ASC_NODE": 85.393, "ARG_OF_PERICENTER": 277.9412, "MEAN_ANOMALY": 149.6425, "EPHEMERIS_TYPE": 0, "CLASSIFICATION_TYPE": "U", "NORAD_CAT_ID": 66965, "ELEMENT_SET_NO": 999, "REV_AT_EPOCH": 398, "BSTAR": -0.025404, "MEAN_MOTION_DOT": -0.01973072, "MEAN_MOTION_DDOT": 0}, "tle": {"line1": "1 66965U 25288G   25360.16668980 -.01973072  00000+0 -25404-1 0  9993", "line2": "2 66965  42.9997  85.3930 0001256 277.9412 149.6425 15.61572122  3981"}}, "geometry": {"type": "Point", "coordinates": [-115.4596756473541, 17.069785473204853]}}, {"type": "Feature", "properties": {"norad_id": 66966, "name": "STARLINK-36139", "group": "last-30-days", "lat": 15.832415555647135, "lon": -113.94192813169788, "alt_km": 384.66029092571443, "timestamp": "2025-12-26T10:30:48.976862+00:00", "meta": {"OBJECT_NAME": "STARLINK-36139", "OBJECT_ID": "2025-288H", "EPOCH": "2025-12-26T04:00:01.998720", "MEAN_MOTION": 15.61562309, "ECCENTRICITY": 0.0001543, "INCLINATION": 42.9998, "RA_OF_ASC_NODE": 85.3884, "ARG_OF_PERICENTER": 281.652, "MEAN_ANOMALY": 147.8502, "EPHEMERIS_TYPE": 0, "CLASSIFICATION_TYPE": "U", "NORAD_CAT_ID": 66966, "ELEMENT_SET_NO": 999, "REV_AT_EPOCH": 398, "BSTAR": -0.025154, "MEAN_MOTION_DOT": -0.01955534, "MEAN_MOTION_DDOT": 0}, "tle": {"line1": "1 66966U 25288H   25360.16668980 -.01955534  00000+0 -25154-1 0  9999", "line2": "2 66966  42.9998  85.3884 0001543 281.6520 147.8502 15.61562309  3984"}}, "geometry": {"type": "Point", "coordinates": [-113.94192813169788, 15.832415555647135]}}, {"type": "Feature", "properties": {"norad_id": 66967, "name": "STARLINK-36136", "group": "last-30-days", "lat": 14.581762840284803, "lon": -112.44021518369044, "alt_km": 384.6959596175502, "timestamp": "2025-12-26T10:30:48.976872+00:00", "meta": {"OBJECT_NAME": "STARLINK-36136", "OBJECT_ID": "2025-288J", "EPOCH": "2025-12-26T04:00:01.998720", "MEAN_MOTION": 15.61563921, "ECCENTRICITY": 0.0001396, "INCLINATION": 43, "RA_OF_ASC_NODE": 85.383, "ARG_OF_PERICENTER": 277.7829, "MEAN_ANOMALY": 153.635, "EPHEMERIS_TYPE": 0, "CLASSIFICATION_TYPE": "U", "NORAD_CAT_ID": 66967, "ELEMENT_SET_NO": 999, "REV_AT_EPOCH": 398, "BSTAR": -0.025183, "MEAN_MOTION_DOT": -0.01957525, "MEAN_MOTION_DDOT": 0}, "tle": {"line1": "1 66967U 25288J   25360.16668980 -.01957525  00000+0 -25183-1 0  9994", "line2": "2 66967  43.0000  85.3830 0001396 277.7829 153.6350 15.61563921  3983"}}, "geometry": {"type": "Point", "coordinates": [-112.44021518369044, 14.581762840284803]}}, {"type": "Feature", "properties": {"norad_id": 66968, "name": "STARLINK-36152", "group": "last-30-days", "lat": 13.320402634663054, "lon": -110.9528596064665, "alt_km": 384.9362487161343, "timestamp": "2025-12-26T10:30:48.976882+00:00", "meta": {"OBJECT_NAME": "STARLINK-36152", "OBJECT_ID": "2025-288K", "EPOCH": "2025-12-26T04:00:01.998720", "MEAN_MOTION": 15.61565028, "ECCENTRICITY": 0.0001433, "INCLINATION": 43, "RA_OF_ASC_NODE": 85.3791, "ARG_OF_PERICENTER": 281.5352, "MEAN_ANOMALY": 151.8004, "EPHEMERIS_TYPE": 0, "CLASSIFICATION_TYPE": "U", "NORAD_CAT_ID": 66968, "ELEMENT_SET_NO": 999, "REV_AT_EPOCH": 398, "BSTAR": -0.025191, "MEAN_MOTION_DOT": -0.01958205, "MEAN_MOTION_DDOT": 0}, "tle": {"line1": "1 66968U 25288K   25360.16668980 -.01958205  00000+0 -25191-1 0  9990", "line2": "2 66968  43.0000  85.3791 0001433 281.5352 151.8004 15.61565028  3982"}}, "geometry": {"type": "Point", "coordinates": [-110.9528596064665, 13.320402634663054]}}]}